[
    {
        "Altitude(m)": 710041.7371920083,
        "Argument of Periapsis(deg)": 0.004556048474650827,
        "Eccentricity": 0.0,
        "Inclination(deg)": 45.0,
        "Latitude(deg)": -25.570041407309112,
        "Longitude(deg)": 153.12740282564195,
        "Mean Anomaly(deg)": 217.34058665899235,
        "RAAN(deg)": 44.99569922341672,
        "Satellite Name": "Constellation 1 211",
        "Satellite Number": 211,
        "Semi-Major Axis(m)": 7083131.272910544,
        "Time(s)": 76
    },
    {
        "Altitude(m)": 710055.5539204936,
        "Argument of Periapsis(deg)": 0.004615996480896233,
        "Eccentricity": 0.0,
        "Inclination(deg)": 45.0,
        "Latitude(deg)": -25.607916910813575,
        "Longitude(deg)": 153.17583836940202,
        "Mean Anomaly(deg)": 217.40128779924223,
        "RAAN(deg)": 44.99564263425115,
        "Satellite Name": "Constellation 1 211",
        "Satellite Number": 211,
        "Semi-Major Axis(m)": 7083131.272910544,
        "Time(s)": 77
    },
    {
        "Altitude(m)": 710069.3723045792,
        "Argument of Periapsis(deg)": 0.004675944487141638,
        "Eccentricity": 0.0,
        "Inclination(deg)": 45.0,
        "Latitude(deg)": -25.645773239916448,
        "Longitude(deg)": 153.22430688622686,
        "Mean Anomaly(deg)": 217.46198893949216,
        "RAAN(deg)": 44.995586045085574,
        "Satellite Name": "Constellation 1 211",
        "Satellite Number": 211,
        "Semi-Major Axis(m)": 7083131.272910544,
        "Time(s)": 78
    },
    {
        "Altitude(m)": 710083.1922970793,
        "Argument of Periapsis(deg)": 0.004735892493387044,
        "Eccentricity": 0.0,
        "Inclination(deg)": 45.0,
        "Latitude(deg)": -25.683610350945997,
        "Longitude(deg)": 153.2728084363117,
        "Mean Anomaly(deg)": 217.5226900797421,
        "RAAN(deg)": 44.99552945592001,
        "Satellite Name": "Constellation 1 211",
        "Satellite Number": 211,
        "Semi-Major Axis(m)": 7083131.272910544,
        "Time(s)": 79
    },
    {
        "Altitude(m)": 710097.0138508001,
        "Argument of Periapsis(deg)": 0.004795840499632449,
        "Eccentricity": 0.0,
        "Inclination(deg)": 45.0,
        "Latitude(deg)": -25.72142820016678,
        "Longitude(deg)": 153.3213430798512,
        "Mean Anomaly(deg)": 217.58339121999194,
        "RAAN(deg)": 44.99547286675444,
        "Satellite Name": "Constellation 1 211",
        "Satellite Number": 211,
        "Semi-Major Axis(m)": 7083131.272910544,
        "Time(s)": 80
    },
    {
        "Altitude(m)": 710110.8369185093,
        "Argument of Periapsis(deg)": 0.004855788505877855,
        "Eccentricity": 0.0,
        "Inclination(deg)": 45.0,
        "Latitude(deg)": -25.759226743779834,
        "Longitude(deg)": 153.36991087703996,
        "Mean Anomaly(deg)": 217.64409236024179,
        "RAAN(deg)": 44.995416277588866,
        "Satellite Name": "Constellation 1 211",
        "Satellite Number": 211,
        "Semi-Major Axis(m)": 7083131.272910544,
        "Time(s)": 81
    },
    {
        "Altitude(m)": 710124.6614529792,
        "Argument of Periapsis(deg)": 0.00491573651212326,
        "Eccentricity": 0.0,
        "Inclination(deg)": 45.0,
        "Latitude(deg)": -25.797005937922414,
        "Longitude(deg)": 153.41851171997487,
        "Mean Anomaly(deg)": 217.70479350049175,
        "RAAN(deg)": 44.99535968842331,
        "Satellite Name": "Constellation 1 211",
        "Satellite Number": 211,
        "Semi-Major Axis(m)": 7083131.272910544,
        "Time(s)": 82
    },
    {
        "Altitude(m)": 710138.4874069508,
        "Argument of Periapsis(deg)": 0.004975684518368666,
        "Eccentricity": 0.0,
        "Inclination(deg)": 45.0,
        "Latitude(deg)": -25.834765738668406,
        "Longitude(deg)": 153.4671460050422,
        "Mean Anomaly(deg)": 217.76549464074165,
        "RAAN(deg)": 44.99530309925773,
        "Satellite Name": "Constellation 1 211",
        "Satellite Number": 211,
        "Semi-Major Axis(m)": 7083131.272910544,
        "Time(s)": 83
    },
    {
        "Altitude(m)": 710152.314733147,
        "Argument of Periapsis(deg)": 0.005035632524614072,
        "Eccentricity": 0.0,
        "Inclination(deg)": 45.0,
        "Latitude(deg)": -25.87250610202727,
        "Longitude(deg)": 153.5158136243362,
        "Mean Anomaly(deg)": 217.82619578099155,
        "RAAN(deg)": 44.99524651009216,
        "Satellite Name": "Constellation 1 211",
        "Satellite Number": 211,
        "Semi-Major Axis(m)": 7083131.272910544,
        "Time(s)": 84
    },
    {
        "Altitude(m)": 710166.1433842814,
        "Argument of Periapsis(deg)": 0.0050955805308594785,
        "Eccentricity": 0.0,
        "Inclination(deg)": 45.0,
        "Latitude(deg)": -25.910226983944693,
        "Longitude(deg)": 153.56451463804603,
        "Mean Anomaly(deg)": 217.88689692124143,
        "RAAN(deg)": 44.995189920926585,
        "Satellite Name": "Constellation 1 211",
        "Satellite Number": 211,
        "Semi-Major Axis(m)": 7083131.272910544,
        "Time(s)": 85
    },
    {
        "Altitude(m)": 710179.9733130427,
        "Argument of Periapsis(deg)": 0.005155528537104883,
        "Eccentricity": 0.0,
        "Inclination(deg)": 45.0,
        "Latitude(deg)": -25.947928340302315,
        "Longitude(deg)": 153.6132491063591,
        "Mean Anomaly(deg)": 217.94759806149133,
        "RAAN(deg)": 44.995133331761025,
        "Satellite Name": "Constellation 1 211",
        "Satellite Number": 211,
        "Semi-Major Axis(m)": 7083131.272910544,
        "Time(s)": 86
    },
    {
        "Altitude(m)": 710193.8044721098,
        "Argument of Periapsis(deg)": 0.0052154765433502885,
        "Eccentricity": 0.0,
        "Inclination(deg)": 45.0,
        "Latitude(deg)": -25.985610126917503,
        "Longitude(deg)": 153.6620170894599,
        "Mean Anomaly(deg)": 218.0082992017412,
        "RAAN(deg)": 44.99507674259545,
        "Satellite Name": "Constellation 1 211",
        "Satellite Number": 211,
        "Semi-Major Axis(m)": 7083131.272910544,
        "Time(s)": 87
    },
    {
        "Altitude(m)": 710207.6368141352,
        "Argument of Periapsis(deg)": 0.005275424549595694,
        "Eccentricity": 0.0,
        "Inclination(deg)": 45.0,
        "Latitude(deg)": -26.023272299543432,
        "Longitude(deg)": 153.71081864753035,
        "Mean Anomaly(deg)": 218.0690003419911,
        "RAAN(deg)": 44.995020153429884,
        "Satellite Name": "Constellation 1 211",
        "Satellite Number": 211,
        "Semi-Major Axis(m)": 7083131.272910544,
        "Time(s)": 88
    },
    {
        "Altitude(m)": 710221.4702917611,
        "Argument of Periapsis(deg)": 0.0053353725558411,
        "Eccentricity": 0.0,
        "Inclination(deg)": 45.0,
        "Latitude(deg)": -26.06091481386873,
        "Longitude(deg)": 153.75965367265215,
        "Mean Anomaly(deg)": 218.12970148224107,
        "RAAN(deg)": 44.99496356426431,
        "Satellite Name": "Constellation 1 211",
        "Satellite Number": 211,
        "Semi-Major Axis(m)": 7083131.272910544,
        "Time(s)": 89
    },
    {
        "Altitude(m)": 710235.3048576161,
        "Argument of Periapsis(deg)": 0.005395320562086505,
        "Eccentricity": 0.0,
        "Inclination(deg)": 45.0,
        "Latitude(deg)": -26.098537625518112,
        "Longitude(deg)": 153.80852256119437,
        "Mean Anomaly(deg)": 218.19040262249098,
        "RAAN(deg)": 44.99490697509874,
        "Satellite Name": "Constellation 1 211",
        "Satellite Number": 211,
        "Semi-Major Axis(m)": 7083131.272910544,
        "Time(s)": 90
    },
    {
        "Altitude(m)": 710249.1404643073,
        "Argument of Periapsis(deg)": 0.00545526856833191,
        "Eccentricity": 0.0,
        "Inclination(deg)": 45.0,
        "Latitude(deg)": -26.136140690051125,
        "Longitude(deg)": 153.8574252052311,
        "Mean Anomaly(deg)": 218.2511037627408,
        "RAAN(deg)": 44.99485038593317,
        "Satellite Name": "Constellation 1 211",
        "Satellite Number": 211,
        "Semi-Major Axis(m)": 7083131.272910544,
        "Time(s)": 91
    },
    {
        "Altitude(m)": 710262.9770644228,
        "Argument of Periapsis(deg)": 0.005515216574577317,
        "Eccentricity": 0.0,
        "Inclination(deg)": 45.0,
        "Latitude(deg)": -26.17372396296316,
        "Longitude(deg)": 153.90636166492985,
        "Mean Anomaly(deg)": 218.31180490299073,
        "RAAN(deg)": 44.99479379676761,
        "Satellite Name": "Constellation 1 211",
        "Satellite Number": 211,
        "Semi-Major Axis(m)": 7083131.272910544,
        "Time(s)": 92
    },
    {
        "Altitude(m)": 710276.8146105423,
        "Argument of Periapsis(deg)": 0.005575164580822722,
        "Eccentricity": 0.0,
        "Inclination(deg)": 45.0,
        "Latitude(deg)": -26.211287399684437,
        "Longitude(deg)": 153.95533200045261,
        "Mean Anomaly(deg)": 218.3725060432406,
        "RAAN(deg)": 44.994737207602036,
        "Satellite Name": "Constellation 1 211",
        "Satellite Number": 211,
        "Semi-Major Axis(m)": 7083131.272910544,
        "Time(s)": 93
    },
    {
        "Altitude(m)": 710290.6530552245,
        "Argument of Periapsis(deg)": 0.005635112587068129,
        "Eccentricity": 0.0,
        "Inclination(deg)": 45.0,
        "Latitude(deg)": -26.248830955580644,
        "Longitude(deg)": 154.00433627195702,
        "Mean Anomaly(deg)": 218.43320718349048,
        "RAAN(deg)": 44.99468061843647,
        "Satellite Name": "Constellation 1 211",
        "Satellite Number": 211,
        "Semi-Major Axis(m)": 7083131.272910544,
        "Time(s)": 94
    }
]